OBJECT_NAME,OBJECT_ID,EPOCH,MEAN_MOTION,ECCENTRICITY,INCLINATION,RA_OF_ASC_NODE,ARG_OF_PERICENTER,MEAN_ANOMALY,EPHEMERIS_TYPE,CLASSIFICATION_TYPE,NORAD_CAT_ID,ELEMENT_SET_NO,REV_AT_EPOCH,BSTAR,MEAN_MOTION_DOT,MEAN_MOTION_DDOT
IRIDIUM 138,2017-083B,2026-07-19T19:53:11.078016,14.34217283,.0002037,86.4001,308.0717,94.2087,265.9342,0,U,43071,999,44881,.42017E-4,.137E-5,0
IRIDIUM 116,2017-083C,2026-07-19T19:07:31.230336,14.34216841,.000249,86.3987,308.3704,97.8412,262.3067,0,U,43072,999,44884,.24277E-4,.88E-6,0
IRIDIUM 130,2017-083D,2026-07-19T18:21:51.215040,14.34218947,.0002357,86.3994,308.6621,100.2728,259.8734,0,U,43073,999,44878,.39922E-4,.132E-5,0
IRIDIUM 151,2017-083E,2026-07-19T19:25:47.214336,14.34217879,.0002263,86.3989,308.4235,95.0554,265.0900,0,U,43074,999,44881,.44188E-4,.144E-5,0
IRIDIUM 134,2017-083F,2026-07-19T18:40:07.172256,14.34217917,.0002258,86.3989,308.4453,96.6712,263.4741,0,U,43075,999,44877,.83448E-5,.43E-6,0
IRIDIUM 137,2017-083G,2026-07-19T18:58:23.259936,14.34217602,.0002552,86.3988,308.5336,91.3557,268.7931,0,U,43076,999,44884,-.88647E-5,-.5E-7,0
IRIDIUM 141,2017-083H,2026-07-19T18:49:15.211776,14.34217346,.000215,86.3987,308.3650,94.3729,265.7712,0,U,43077,999,44884,.41257E-4,.135E-5,0
IRIDIUM 153,2017-083J,2026-07-19T17:40:23.403072,14.34217438,.000203,86.3955,276.8631,95.5453,264.5974,0,U,43078,999,44994,-.98763E-5,-.8E-7,0
IRIDIUM 131,2017-083K,2026-07-19T18:30:59.194944,14.34217393,.0002116,86.3988,308.5584,94.1511,265.9926,0,U,43079,999,44877,-.18844E-4,-.33E-6,0
IRIDIUM 144,2018-030A,2026-07-19T17:49:31.427040,14.34217200,.0002383,86.3954,276.7890,96.4076,263.7392,0,U,43249,999,43480,.66417E-5,.38E-6,0
IRIDIUM 149,2018-030B,2026-07-19T17:58:39.430272,14.34217468,.0002132,86.3951,276.7527,93.5222,266.6217,0,U,43250,999,43482,-.94928E-5,-.7E-7,0
IRIDIUM 157,2018-030C,2026-07-19T18:26:03.419232,14.34218787,.0002304,86.3954,276.7987,94.6841,265.4618,0,U,43251,999,43480,.27094E-4,.96E-6,0
IRIDIUM 140,2018-030D,2026-07-19T17:12:59.503104,14.34218700,.0002262,86.3955,276.8326,95.8228,264.3225,0,U,43252,999,43485,.3828E-4,.127E-5,0
IRIDIUM 145,2018-030E,2026-07-19T16:54:43.500096,14.34217367,.0002572,86.3953,276.8100,97.8915,262.2573,0,U,43253,999,43478,.49783E-5,.34E-6,0
IRIDIUM 146,2018-030F,2026-07-19T18:07:47.483616,14.34217262,.0002273,86.3953,276.8009,95.9475,264.1979,0,U,43254,999,43480,-.64401E-5,.2E-7,0
IRIDIUM 148,2018-030G,2026-07-19T17:22:07.453632,14.34219000,.0002354,86.3955,276.8577,93.1179,267.0286,0,U,43255,999,43483,.35744E-4,.12E-5,0
IRIDIUM 142,2018-030H,2026-07-19T18:16:55.480800,14.34217110,.0002311,86.3951,276.7297,97.0011,263.1448,0,U,43256,999,43480,-.5084E-5,.6E-7,0
IRIDIUM 150,2018-030J,2026-07-19T17:31:15.425760,14.34217289,.0002324,86.3956,276.8607,96.0736,264.0725,0,U,43257,999,43482,.897E-5,.45E-6,0
IRIDIUM 143,2018-030K,2026-07-19T17:03:51.484320,14.34217689,.0002339,86.3956,276.9621,95.9545,264.1917,0,U,43258,999,43475,.24919E-4,.9E-6,0
IRIDIUM 161,2018-047C,2026-07-19T16:26:37.976928,14.43276983,.0002175,86.4457,74.8796,80.7554,279.3892,0,U,43478,999,42982,.36015E-4,.141E-5,0
IRIDIUM 152,2018-047D,2026-07-19T21:25:58.230912,14.34217474,.0001976,86.3929,74.6536,83.9920,276.1501,0,U,43479,999,42717,-.31892E-4,-.7E-6,0
IRIDIUM 147,2018-047E,2026-07-19T16:33:42.249312,14.34217862,.00023,86.3933,74.7446,87.6755,272.4704,0,U,43480,999,42714,.17547E-4,.69E-6,0
IRIDIUM 110,2018-047F,2026-07-19T16:42:50.075424,14.34216857,.0002053,86.3936,74.8347,77.7421,282.4005,0,U,43481,999,42713,.32177E-4,.11E-5,0
IRIDIUM 162,2018-047G,2026-07-19T16:17:33.374400,14.43279789,.0002187,86.4455,74.7727,86.6051,273.5400,0,U,43482,999,42981,.38655E-4,.15E-5,0
IRIDIUM 160,2018-061A,2026-07-19T20:26:14.426304,14.34217882,.0002214,86.3939,43.1333,86.8312,273.3137,0,U,43569,999,41805,.2744E-4,.97E-6,0
IRIDIUM 166,2018-061B,2026-07-19T12:40:26.486976,14.34217662,.0002284,86.3937,43.2187,89.5415,270.6043,0,U,43570,999,41803,-.2772E-5,.12E-6,0
IRIDIUM 158,2018-061C,2026-07-19T11:54:46.501920,14.34217288,.00021186,86.3937,43.2419,88.7187,271.4251,0,U,43571,999,41799,.1542784E-5,.24E-6,0
IRIDIUM 165,2018-061D,2026-07-19T19:13:10.490304,14.34218176,.0002297,86.3939,43.1614,90.0340,270.1119,0,U,43572,999,41806,.27815E-4,.98E-6,0
IRIDIUM 155,2018-061E,2026-07-19T11:36:30.452256,14.34217753,.00021442,86.3936,43.1616,90.5163,269.6278,0,U,43573,999,41798,.6291525E-5,.37E-6,0
IRIDIUM 154,2018-061F,2026-07-19T07:48:10.498464,14.34217320,.00021976,86.3936,43.3633,89.2216,270.9232,0,U,43574,999,41801,-.739313E-6,.18E-6,0
IRIDIUM 163,2018-061G,2026-07-19T19:04:02.500032,14.34217755,.0002122,86.3935,43.0809,87.6883,272.4556,0,U,43575,999,41805,.1338E-4,.57E-6,0
